{"type": "FeatureCollection", "features": [{"type": "Feature", "geometry": {"type": "Point", "coordinates": [-99.90385162421002, 26.366477271381918]}, "properties": {"Unnamed: 0": "20", "Municipio": "Apodaca", "SECCION": "70", "PAN": "593", "PRI": "1,428", "PRD": "33", "PVEM": "62", "PT": "111", "MC": "639", "MORENA": "629", "VIDA": "63", "ESO": "9", "PL": "0", "PES": "0", "PJ": "19", "CAND_IND_1": "0", "C_PAN_PRI_PRD": "117", "C_PAN_PRI": "17", "C_PAN_PRD": "1", "C_PRI_PRD": "2", "C_PVEM_MORENA": "0", "NO_REGISTRADAS": "1", "NULOS": "92", "TOTAL_VOTOS_ASENTADO": "3,806", "TOTAL_VOTOS_CALCULADO": "3,816", "LISTA_NOMINAL": "7,725", "Participacion": "49.40%", "Primer Lugar": "1,428", "Segundo Lugar": "639", "Margen": "20.68%", "Partido Ganador": "PRI", "Segundo Lugar.1": "MC", "Meta Seccionales": "1,946"}}, {"type": "Feature", "geometry": {"type": "Point", "coordinates": [-99.25375513426272, 26.193224059336913]}, "properties": {"Unnamed: 0": "9", "Municipio": "Apodaca", "SECCION": "150", "PAN": "648", "PRI": "1,992", "PRD": "120", "PVEM": "91", "PT": "57", "MC": "676", "MORENA": "982", "VIDA": "41", "ESO": "9", "PL": "0", "PES": "0", "PJ": "3", "CAND_IND_1": "0", "C_PAN_PRI_PRD": "159", "C_PAN_PRI": "23", "C_PAN_PRD": "8", "C_PRI_PRD": "3", "C_PVEM_MORENA": "0", "NO_REGISTRADAS": "1", "NULOS": "122", "TOTAL_VOTOS_ASENTADO": "4,980", "TOTAL_VOTOS_CALCULADO": "4,935", "LISTA_NOMINAL": "9,784", "Participacion": "50.44%", "Primer Lugar": "1,992", "Segundo Lugar": "982", "Margen": "20.47%", "Partido Ganador": "PRI", "Segundo Lugar.1": "MORENA", "Meta Seccionales": "2,517"}}, {"type": "Feature", "geometry": {"type": "Point", "coordinates": [-99.19980853807702, 25.724924103748986]}, "properties": {"Unnamed: 0": "10", "Municipio": "Juarez", "SECCION": "2380", "PAN": "65", "PRI": "392", "PRD": "9", "PVEM": "49", "PT": "35", "MC": "1,270", "MORENA": "608", "VIDA": "0", "ESO": "10", "PL": "0", "PES": "5", "PJ": "5", "CAND_IND_1": "0", "C_PAN_PRI_PRD": "18", "C_PAN_PRI": "5", "C_PAN_PRD": "0", "C_PRI_PRD": "1", "C_PVEM_MORENA": "12", "NO_REGISTRADAS": "2", "NULOS": "95", "TOTAL_VOTOS_ASENTADO": "2,581", "TOTAL_VOTOS_CALCULADO": "2,581", "LISTA_NOMINAL": "9,365", "Participacion": "27.56%", "Primer Lugar": "1,270", "Segundo Lugar": "608", "Margen": "25.65%", "Partido Ganador": "MC", "Segundo Lugar.1": "MORENA", "Meta Seccionales": "1,316"}}]}